NORAD_CAT_ID,OBJECT_NAME,OBJECT_TYPE,EPOCH,MEAN_MOTION,ECCENTRICITY,INCLINATION,RA_OF_ASC_NODE,ARG_OF_PERICENTER,MEAN_ANOMALY,BSTAR,MEAN_MOTION_DOT,MEAN_MOTION_DDOT,TLE_LINE0,TLE_LINE1,TLE_LINE2,SEMIMAJOR_AXIS,PERIOD,APOGEE,PERIGEE,DECAYED
52464.0,STARLINK-3904,PAYLOAD,2022-06-27 22:00:00,15.5433862,0.000169,53.2175,6.9207,34.9663,275.9859,-0.017551,-0.01062618,0.0,0 STARLINK-3904,1 52464U 22049P   22178.91667824 -.01062618  00000-0 -17551-1 0  9997,2 52464  53.2175   6.9207 0001690  34.9663 275.9859 15.54338620  1303,6782.2130000000025,92.644,405.224,402.932,0.0
52464.0,STARLINK-3904,PAYLOAD,2022-06-28 06:00:00,15.53579253,0.0001425,53.2175,5.3125,37.2989,339.4554,-0.018058,-0.01063106,0.0,0 STARLINK-3904,1 52464U 22049P   22179.25001157 -.01063106  00000-0 -18058-1 0  9992,2 52464  53.2175   5.3125 0001425  37.2989 339.4554 15.53579253  8480,6784.4230000000025,92.689,407.254,405.321,0.0
52464.0,STARLINK-3904,PAYLOAD,2022-06-28 14:00:01,15.52818417,0.0001754,53.2177,3.7077,31.2953,50.3476,-0.018513,-0.01060396,0.0,0 STARLINK-3904,1 52464U 22049P   22179.58334491 -.01060396  00000-0 -18513-1 0  9992,2 52464  53.2177   3.7077 0001754  31.2953  50.3476 15.52818417  1303,6786.639,92.735,409.694,407.31300000000016,0.0
52464.0,STARLINK-3904,PAYLOAD,2022-06-28 22:00:00,15.52056048,0.0002004,53.2175,2.1066,31.3748,114.2435,-0.018933,-0.01055415,0.0,0 STARLINK-3904,1 52464U 22049P   22179.91667824 -.01055415  00000-0 -18933-1 0  9990,2 52464  53.2175   2.1066 0002004  31.3748 114.2435 15.52056048  1303,6788.861,92.78,412.086,409.365,0.0
52464.0,STARLINK-3904,PAYLOAD,2022-06-29 06:00:00,15.51301317,0.0001665,53.2175,0.5041,44.3704,164.3639,-0.019636,-0.01064192,0.0,0 STARLINK-3904,1 52464U 22049P   22180.25001157 -.01064192  00000-0 -19636-1 0  9993,2 52464  53.2175   0.5041 0001665  44.3704 164.3639 15.51301317  8632,6791.063,92.825,414.0580000000001,411.797,0.0
52464.0,STARLINK-3904,PAYLOAD,2022-06-29 14:00:01,15.50408893,0.0001927,53.2177,358.9067,40.6166,230.2867,-0.0113,-0.0060575,0.0,0 STARLINK-3904,1 52464U 22049P   22180.58334491 -.00605750  00000-0 -11300-1 0  9999,2 52464  53.2177 358.9067 0001927  40.6166 230.2867 15.50408893  8681,6793.668000000002,92.879,416.842,414.224,0.0
52464.0,STARLINK-3904,PAYLOAD,2022-06-29 22:00:00,15.49886041,0.0001766,53.2174,357.3137,43.4964,288.6947,-2.986e-05,-2.146e-05,0.0,0 STARLINK-3904,1 52464U 22049P   22180.91667824 -.00002146  00000-0 -29860-4 0  9998,2 52464  53.2174 357.3137 0001766  43.4964 288.6947 15.49886041  1308,6795.196,92.91,418.261,415.861,0.0
52464.0,STARLINK-3904,PAYLOAD,2022-06-30 06:00:00,15.50017976,0.0001601,53.2162,355.7242,41.3696,351.7536,-0.0055133,-0.00303002,0.0,0 STARLINK-3904,1 52464U 22049P   22181.25001157 -.00303002  00000-0 -55133-2 0  9992,2 52464  53.2162 355.7242 0001601  41.3696 351.7536 15.50017976  8792,6794.811,92.902,417.763,415.588,0.0
52464.0,STARLINK-3904,PAYLOAD,2022-06-30 14:00:01,15.49916376,0.0001519,53.2156,354.1368,42.0077,52.0713,-0.00030177,-0.00017559,0.0,0 STARLINK-3904,1 52464U 22049P   22181.58334491 -.00017559  00000-0 -30177-3 0  9999,2 52464  53.2156 354.1368 0001519  42.0077  52.0713 15.49916376  1304,6795.107,92.908,418.005,415.94,0.0
52464.0,STARLINK-3904,PAYLOAD,2022-06-30 22:00:00,15.49894534,0.0001754999999999,53.2157,352.5453,37.7906,117.2228,-0.00012005,-7.261e-05,0.0,0 STARLINK-3904,1 52464U 22049P   22181.91667824 -.00007261  00000-0 -12005-3 0  9994,2 52464  53.2157 352.5453 0001755  37.7906 117.2228 15.49894534  1302,6795.170999999999,92.91,418.229,415.844,0.0
52464.0,STARLINK-3904,PAYLOAD,2022-07-01 06:00:00,15.49900743,0.0001530999999999,53.2166,350.9446,45.7672,170.1805,-0.0023898,-0.00133871,0.0,0 STARLINK-3904,1 52464U 22049P   22182.25001157 -.00133871  00000-0 -23898-2 0  9991,2 52464  53.2166 350.9446 0001531  45.7672 170.1805 15.49900743  8943,6795.153,92.909,418.059,415.978,0.0
52464.0,STARLINK-3904,PAYLOAD,2022-07-01 14:00:01,15.49869964,0.0001392,53.217,349.346,45.5459,231.28,-0.011156,-0.00587921,0.0,0 STARLINK-3904,1 52464U 22049P   22182.58334491 -.00587921  00000-0 -11156-1 0  9999,2 52464  53.2170 349.3460 0001392  45.5459 231.2800 15.49869964  1308,6795.243,92.911,418.054,416.162,0.0
52464.0,STARLINK-3904,PAYLOAD,2022-07-01 22:00:00,15.49477692,0.0001379,53.2173,347.7492,43.7027,293.7814,-0.020787,-0.01056154,0.0,0 STARLINK-3904,1 52464U 22049P   22182.91667824 -.01056154  00000-0 -20787-1 0  9995,2 52464  53.2173 347.7492 0001379  43.7027 293.7814 15.49477692  9055,6796.39,92.935,419.192,417.318,0.0
52464.0,STARLINK-3904,PAYLOAD,2022-07-02 14:00:01,15.47959993,0.000193,53.2176,344.5602,30.0092,66.4892,-0.02199,-0.01058847,0.0,0 STARLINK-3904,1 52464U 22049P   22183.58334491 -.01058847  00000-0 -21990-1 0  9998,2 52464  53.2176 344.5602 0001930  30.0092  66.4892 15.47959993  9159,6800.831999999999,93.026,424.009,421.384,0.0
52464.0,STARLINK-3904,PAYLOAD,2022-07-02 22:00:00,15.47196164,0.0001679,53.2173,342.9701,41.9135,112.7235,-0.022402,-0.01050913,0.0,0 STARLINK-3904,1 52464U 22049P   22183.91667824 -.01050913  00000-0 -22402-1 0  9999,2 52464  53.2173 342.9701 0001679  41.9135 112.7235 15.47196164  1305,6803.07,93.072,426.077,423.792,0.0
52464.0,STARLINK-3904,PAYLOAD,2022-07-03 14:00:01,15.45680359,0.0001758,53.2176,339.7921,36.804,231.3702,-0.023739,-0.01056001,0.0,0 STARLINK-3904,1 52464U 22049P   22184.58334491 -.01056001  00000-0 -23739-1 0  9992,2 52464  53.2176 339.7921 0001758  36.8040 231.3702 15.45680359  9309,6807.517,93.163,430.578,428.185,0.0
52464.0,STARLINK-3904,PAYLOAD,2022-07-03 22:00:00,15.44920742,0.0001425,53.2171,338.2074,42.9126,280.6607,-0.02434,-0.01054776,0.0,0 STARLINK-3904,1 52464U 22049P   22184.91667824 -.01054776  00000-0 -24340-1 0  9994,2 52464  53.2171 338.2074 0001425  42.9126 280.6607 15.44920742  1306,6809.748000000001,93.209,432.583,430.643,0.0
52464.0,STARLINK-3904,PAYLOAD,2022-07-04 14:00:01,15.43402485,0.0001825,53.2174,335.0405,32.0397,39.5961,-0.025695,-0.01057041,0.0,0 STARLINK-3904,1 52464U 22049P   22185.58334491 -.01057041  00000-0 -25695-1 0  9991,2 52464  53.2174 335.0405 0001825  32.0397  39.5961 15.43402485  9463,6814.2130000000025,93.3,437.322,434.835,0.0
52464.0,STARLINK-3904,PAYLOAD,2022-07-04 22:00:00,15.42641417,0.0001681,53.2171,333.461,39.8797,84.4178,-0.026271,-0.01068218,0.0,0 STARLINK-3904,1 52464U 22049P   22185.91667824 -.01068218  00000-0 -26271-1 0  9996,2 52464  53.2171 333.4610 0001681  39.8797  84.4178 15.42641417  1302,6816.454000000002,93.346,439.465,437.173,0.0
52464.0,STARLINK-3904,PAYLOAD,2022-07-05 14:00:01,15.411215,0.0001881,53.2174,330.3051,37.3225,189.5616,-0.027607,-0.01066785,0.0,0 STARLINK-3904,1 52464U 22049P   22186.58334491 -.01066785  00000-0 -27607-1 0  9992,2 52464  53.2174 330.3051 0001881  37.3225 189.5616 15.41121500  9612,6820.935,93.438,444.083,441.517,0.0
52464.0,STARLINK-3904,PAYLOAD,2022-07-05 22:00:00,15.40364649,0.0001546,53.2171,328.7309,43.762,233.0445,-0.02842,-0.01070415,0.0,0 STARLINK-3904,1 52464U 22049P   22186.91667824 -.01070415  00000-0 -28420-1 0  9997,2 52464  53.2171 328.7309 0001546  43.7620 233.0445 15.40364649  1309,6823.169,93.484,446.089,443.979,0.0
52464.0,STARLINK-3904,PAYLOAD,2022-07-06 14:00:01,15.38845373,0.0001941,53.2174,325.5859,27.1406,346.7763,-0.029887,-0.0107053,0.0,0 STARLINK-3904,1 52464U 22049P   22187.58334491 -.01070530  00000-0 -29887-1 0  9998,2 52464  53.2174 325.5859 0001941  27.1406 346.7763 15.38845373  1304,6827.659000000002,93.577,450.85,448.199,0.0
52464.0,STARLINK-3904,PAYLOAD,2022-07-06 16:00:00,15.38655149,0.0002146,53.2173,325.194,28.966,86.8328,-0.030059,-0.01070064,0.0,0 STARLINK-3904,1 52464U 22049P   22187.66667824 -.01070064  00000-0 -30059-1 0  9991,2 52464  53.2173 325.1940 0002146  28.9660  86.8328 15.38655149  9788,6828.222,93.588,451.55300000000005,448.622,0.0
52464.0,STARLINK-3904,PAYLOAD,2022-07-06 18:37:59,15.40350283,6.49e-05,53.2153,324.7111,40.7855,319.3199,-0.008249,-0.00324406,0.0,0 STARLINK-3904,1 52464U 22049P   22187.77638420 -.00324406  00000-0 -82490-2 0  9991,2 52464  53.2153 324.7111 0000649  40.7855 319.3199 15.40350283  9802,6823.212,93.485,445.52,444.634,0.0
52464.0,STARLINK-3904,PAYLOAD,2022-07-07 06:00:02,15.37324831,0.0001771999999999,53.2173,322.4475,35.8365,71.6053,-0.031356,-0.01068662,0.0,0 STARLINK-3904,1 52464U 22049P   22188.25002315 -.01068662  00000-0 -31356-1 0  9997,2 52464  53.2173 322.4475 0001772  35.8365  71.6053 15.37324831  9871,6832.161,93.669,455.236,452.815,0.0
52464.0,STARLINK-3904,PAYLOAD,2022-07-07 13:21:02,15.38746286,0.0001227,53.2158,321.0501,76.8453,283.2689,-0.0078661999999999,-0.00294599,0.0,0 STARLINK-3904,1 52464U 22049P   22188.55628389 -.00294599  00000-0 -78662-2 0  9996,2 52464  53.2158 321.0501 0001227  76.8453 283.2689 15.38746286  9922,6827.953,93.583,450.655,448.98,0.0
52464.0,STARLINK-3904,PAYLOAD,2022-07-07 22:00:00,15.35807108,0.0001918,53.2172,319.3193,36.6278,160.5567,-0.032967,-0.0106953,0.0,0 STARLINK-3904,1 52464U 22049P   22188.91667824 -.01069530  00000-0 -32967-1 0  9996,2 52464  53.2172 319.3193 0001918  36.6278 160.5567 15.35807108  9976,6836.661,93.762,459.837,457.215,0.0
52464.0,STARLINK-3904,PAYLOAD,2022-07-08 08:05:36,15.3700371,0.0004567,53.2152,317.3839,35.0279,325.1025,-0.008506,-0.00300883,0.0,0 STARLINK-3904,1 52464U 22049P   22189.33722808 -.00300883  00000-0 -85060-2 0  9998,2 52464  53.2152 317.3839 0004567  35.0279 325.1025 15.37003710 10043,6833.111999999999,93.689,458.098,451.857,0.0
52464.0,STARLINK-3904,PAYLOAD,2022-07-08 14:00:01,15.34285692,0.0001939,53.2174,316.1966,32.4957,250.8474,-0.034473,-0.01065395,0.0,0 STARLINK-3904,1 52464U 22049P   22189.58334491 -.01065395  00000-0 -34473-1 0  9990,2 52464  53.2174 316.1966 0001939  32.4957 250.8474 15.34285692 10072,6841.18,93.855,464.372,461.719,0.0
